start=new Date('2023-01-27T00:00:00.000Z').valueOf();
sats=[{"ELEMENT_SET_NO":"999","TLE_LINE2":"2 48149  53.0535 221.1088 0001181  96.0016 264.1108 15.06395665101149","REF_FRAME":"TEME","ECCENTRICITY":"0.00011810","INCLINATION":"53.0535","FILE":"3761951","MEAN_ANOMALY":"264.1108","PERIOD":"95.592","ARG_OF_PERICENTER":"96.0016","LAUNCH_DATE":"2021-04-07","NORAD_CAT_ID":"48149","EPOCH":"2023-01-26T12:14:58.813152","OBJECT_ID":"2021-027BK","MEAN_MOTION_DDOT":"0.0000000000000","CENTER_NAME":"EARTH","SITE":"AFETR","OBJECT_TYPE":"PAYLOAD","OBJECT_NAME":"STARLINK-2492","COUNTRY_CODE":"US","CLASSIFICATION_TYPE":"U","SEMIMAJOR_AXIS":"6925.362","REV_AT_EPOCH":"10114","MEAN_MOTION":"15.06395665","MEAN_MOTION_DOT":"0.00000863","MEAN_ELEMENT_THEORY":"SGP4","GP_ID":"223756180","RCS_SIZE":"LARGE","EPHEMERIS_TYPE":"0","BSTAR":"0.00007680200000","DECAY_DATE":null,"PERIAPSIS":"546.409","RA_OF_ASC_NODE":"221.1088","TIME_SYSTEM":"UTC","TLE_LINE1":"1 48149U 21027BK  23026.51040293  .00000863  00000-0  76802-4 0  9999","APOAPSIS":"548.045"},{"REV_AT_EPOCH":"10115","SEMIMAJOR_AXIS":"6925.357","MEAN_MOTION":"15.06397370","OBJECT_NAME":"STARLINK-2493","OBJECT_TYPE":"PAYLOAD","CLASSIFICATION_TYPE":"U","COUNTRY_CODE":"US","RA_OF_ASC_NODE":"221.0792","DECAY_DATE":null,"PERIAPSIS":"546.339","BSTAR":"0.00010196000000","APOAPSIS":"548.104","TLE_LINE1":"1 48150U 21027BL  23026.51408825  .00001237  00000-0  10196-3 0  9999","TIME_SYSTEM":"UTC","MEAN_ELEMENT_THEORY":"SGP4","MEAN_MOTION_DOT":"0.00001237","EPHEMERIS_TYPE":"0","GP_ID":"223756408","RCS_SIZE":"LARGE","INCLINATION":"53.0551","FILE":"3761951","TLE_LINE2":"2 48150  53.0551 221.0792 0001274  99.9770 260.1363 15.06397370101157","ECCENTRICITY":"0.00012740","REF_FRAME":"TEME","PERIOD":"95.592","ARG_OF_PERICENTER":"99.9770","MEAN_ANOMALY":"260.1363","ELEMENT_SET_NO":"999","CENTER_NAME":"EARTH","MEAN_MOTION_DDOT":"0.0000000000000","OBJECT_ID":"2021-027BL","EPOCH":"2023-01-26T12:20:17.224800","SITE":"AFETR","NORAD_CAT_ID":"48150","LAUNCH_DATE":"2021-04-07"},{"TLE_LINE2":"2 48151  53.0521 222.2642 0001102  90.7610 269.3506 15.06398610101118","REF_FRAME":"TEME","ECCENTRICITY":"0.00011020","FILE":"3761951","INCLINATION":"53.0521","MEAN_ANOMALY":"269.3506","ARG_OF_PERICENTER":"90.7610","PERIOD":"95.592","ELEMENT_SET_NO":"999","EPOCH":"2023-01-26T06:03:26.204832","CENTER_NAME":"EARTH","MEAN_MOTION_DDOT":"0.0000000000000","OBJECT_ID":"2021-027BM","SITE":"AFETR","LAUNCH_DATE":"2021-04-07","NORAD_CAT_ID":"48151","SEMIMAJOR_AXIS":"6925.353","REV_AT_EPOCH":"10111","MEAN_MOTION":"15.06398610","OBJECT_TYPE":"PAYLOAD","OBJECT_NAME":"STARLINK-2503","CLASSIFICATION_TYPE":"U","COUNTRY_CODE":"US","BSTAR":"0.00011017000000","DECAY_DATE":null,"RA_OF_ASC_NODE":"222.2642","PERIAPSIS":"546.455","TLE_LINE1":"1 48151U 21027BM  23026.25238663  .00001360  00000-0  11017-3 0  9992","TIME_SYSTEM":"UTC","APOAPSIS":"547.981","MEAN_MOTION_DOT":"0.00001360","MEAN_ELEMENT_THEORY":"SGP4","GP_ID":"223754678","RCS_SIZE":"LARGE","EPHEMERIS_TYPE":"0"},{"REV_AT_EPOCH":"9726","SEMIMAJOR_AXIS":"6925.330","MEAN_MOTION":"15.06406121","OBJECT_NAME":"STARLINK-2567","OBJECT_TYPE":"PAYLOAD","COUNTRY_CODE":"US","CLASSIFICATION_TYPE":"U","PERIAPSIS":"546.272","DECAY_DATE":null,"RA_OF_ASC_NODE":"115.8981","BSTAR":"0.00016698000000","APOAPSIS":"548.117","TLE_LINE1":"1 48276U 21036A   23026.55877573  .00002207  00000-0  16698-3 0  9993","TIME_SYSTEM":"UTC","MEAN_ELEMENT_THEORY":"SGP4","MEAN_MOTION_DOT":"0.00002207","EPHEMERIS_TYPE":"0","RCS_SIZE":"LARGE","GP_ID":"223755191","INCLINATION":"53.0546","FILE":"3761951","ECCENTRICITY":"0.00013320","TLE_LINE2":"2 48276  53.0546 115.8981 0001332  97.3771 262.7369 15.06406121 97263","REF_FRAME":"TEME","ARG_OF_PERICENTER":"97.3771","PERIOD":"95.592","MEAN_ANOMALY":"262.7369","ELEMENT_SET_NO":"999","CENTER_NAME":"EARTH","OBJECT_ID":"2021-036A","MEAN_MOTION_DDOT":"0.0000000000000","EPOCH":"2023-01-26T13:24:38.223072","SITE":"AFETR","NORAD_CAT_ID":"48276","LAUNCH_DATE":"2021-04-29"},{"NORAD_CAT_ID":"48277","LAUNCH_DATE":"2021-04-29","SITE":"AFETR","CENTER_NAME":"EARTH","OBJECT_ID":"2021-036B","MEAN_MOTION_DDOT":"0.0000000000000","EPOCH":"2023-01-26T10:15:33.345792","ELEMENT_SET_NO":"999","PERIOD":"95.592","ARG_OF_PERICENTER":"97.1890","MEAN_ANOMALY":"262.9260","INCLINATION":"53.0513","FILE":"3761951","REF_FRAME":"TEME","TLE_LINE2":"2 48277  53.0513  81.4874 0001417  97.1890 262.9260 15.06408060 97739","ECCENTRICITY":"0.00014170","EPHEMERIS_TYPE":"0","RCS_SIZE":"LARGE","GP_ID":"223755441","MEAN_ELEMENT_THEORY":"SGP4","MEAN_MOTION_DOT":"0.00004665","APOAPSIS":"548.170","TLE_LINE1":"1 48277U 21036B   23026.42746928  .00004665  00000-0  33182-3 0  9996","TIME_SYSTEM":"UTC","PERIAPSIS":"546.208","DECAY_DATE":null,"RA_OF_ASC_NODE":"81.4874","BSTAR":"0.00033182000000","CLASSIFICATION_TYPE":"U","COUNTRY_CODE":"US","OBJECT_NAME":"STARLINK-2569","OBJECT_TYPE":"PAYLOAD","MEAN_MOTION":"15.06408060","REV_AT_EPOCH":"9773","SEMIMAJOR_AXIS":"6925.324"},{"LAUNCH_DATE":"2021-04-29","NORAD_CAT_ID":"48278","SITE":"AFETR","EPOCH":"2023-01-26T11:09:18.543744","OBJECT_ID":"2021-036C","MEAN_MOTION_DDOT":"0.0000000000000","CENTER_NAME":"EARTH","ELEMENT_SET_NO":"999","MEAN_ANOMALY":"277.3024","PERIOD":"95.592","ARG_OF_PERICENTER":"82.8129","TLE_LINE2":"2 48278  53.0547  96.3947 0001445  82.8129 277.3024 15.06406059 97521","REF_FRAME":"TEME","ECCENTRICITY":"0.00014450","INCLINATION":"53.0547","FILE":"3761951","GP_ID":"223756193","RCS_SIZE":"LARGE","EPHEMERIS_TYPE":"0","MEAN_MOTION_DOT":"0.00002928","MEAN_ELEMENT_THEORY":"SGP4","TIME_SYSTEM":"UTC","TLE_LINE1":"1 48278U 21036C   23026.46479796  .00002928  00000-0  21532-3 0  9993","APOAPSIS":"548.196","BSTAR":"0.00021532000000","DECAY_DATE":null,"RA_OF_ASC_NODE":"96.3947","PERIAPSIS":"546.194","COUNTRY_CODE":"US","CLASSIFICATION_TYPE":"U","OBJECT_TYPE":"PAYLOAD","OBJECT_NAME":"STARLINK-2543","MEAN_MOTION":"15.06406059","SEMIMAJOR_AXIS":"6925.330","REV_AT_EPOCH":"9752"},{"ELEMENT_SET_NO":"999","ECCENTRICITY":"0.00013810","TLE_LINE2":"2 48279  53.0519  96.3386 0001381  91.4962 268.6185 15.06424561 97527","REF_FRAME":"TEME","INCLINATION":"53.0519","FILE":"3761951","MEAN_ANOMALY":"268.6185","ARG_OF_PERICENTER":"91.4962","PERIOD":"95.591","LAUNCH_DATE":"2021-04-29","NORAD_CAT_ID":"48279","EPOCH":"2023-01-26T10:58:40.362240","CENTER_NAME":"EARTH","OBJECT_ID":"2021-036D","MEAN_MOTION_DDOT":"0.0000000000000","SITE":"AFETR","OBJECT_TYPE":"PAYLOAD","OBJECT_NAME":"STARLINK-2580","CLASSIFICATION_TYPE":"U","COUNTRY_CODE":"US","SEMIMAJOR_AXIS":"6925.273","REV_AT_EPOCH":"9752","MEAN_MOTION":"15.06424561","MEAN_MOTION_DOT":"0.00014613","MEAN_ELEMENT_THEORY":"SGP4","RCS_SIZE":"LARGE","GP_ID":"223756421","EPHEMERIS_TYPE":"0","BSTAR":"0.00099723000000","RA_OF_ASC_NODE":"96.3386","DECAY_DATE":null,"PERIAPSIS":"546.182","TLE_LINE1":"1 48279U 21036D   23026.45741160  .00014613  00000-0  99723-3 0  9991","TIME_SYSTEM":"UTC","APOAPSIS":"548.095"},{"ELEMENT_SET_NO":"999","ARG_OF_PERICENTER":"59.8569","PERIOD":"95.591","MEAN_ANOMALY":"300.2542","FILE":"3762090","INCLINATION":"53.0544","TLE_LINE2":"2 48280  53.0544 165.4844 0001235  59.8569 300.2542 15.06410671 97159","REF_FRAME":"TEME","ECCENTRICITY":"0.00012350","NORAD_CAT_ID":"48280","LAUNCH_DATE":"2021-04-29","SITE":"AFETR","CENTER_NAME":"EARTH","MEAN_MOTION_DDOT":"0.0000000000000","OBJECT_ID":"2021-036E","EPOCH":"2023-01-26T15:35:59.507520","COUNTRY_CODE":"US","CLASSIFICATION_TYPE":"U","OBJECT_NAME":"STARLINK-2565","OBJECT_TYPE":"PAYLOAD","MEAN_MOTION":"15.06410671","REV_AT_EPOCH":"9715","SEMIMAJOR_AXIS":"6925.316","EPHEMERIS_TYPE":"0","RCS_SIZE":"LARGE","GP_ID":"223763517","MEAN_ELEMENT_THEORY":"SGP4","MEAN_MOTION_DOT":"0.00001767","APOAPSIS":"548.036","TLE_LINE1":"1 48280U 21036E   23026.64999430  .00001767  00000-0  13745-3 0  9995","TIME_SYSTEM":"UTC","PERIAPSIS":"546.326","DECAY_DATE":null,"RA_OF_ASC_NODE":"165.4844","BSTAR":"0.00013745000000"},{"ELEMENT_SET_NO":"999","FILE":"3761951","INCLINATION":"53.0546","TLE_LINE2":"2 48281  53.0546 145.7217 0001223  75.9067 284.2058 15.06403000 96842","REF_FRAME":"TEME","ECCENTRICITY":"0.00012230","PERIOD":"95.592","ARG_OF_PERICENTER":"75.9067","MEAN_ANOMALY":"284.2058","NORAD_CAT_ID":"48281","LAUNCH_DATE":"2021-04-29","MEAN_MOTION_DDOT":"0.0000000000000","OBJECT_ID":"2021-036F","CENTER_NAME":"EARTH","EPOCH":"2023-01-26T14:19:02.540352","SITE":"AFETR","OBJECT_NAME":"STARLINK-2520","OBJECT_TYPE":"PAYLOAD","CLASSIFICATION_TYPE":"U","COUNTRY_CODE":"US","REV_AT_EPOCH":"9684","SEMIMAJOR_AXIS":"6925.339","MEAN_MOTION":"15.06403000","MEAN_ELEMENT_THEORY":"SGP4","MEAN_MOTION_DOT":"0.00001762","EPHEMERIS_TYPE":"0","GP_ID":"223754941","RCS_SIZE":"LARGE","DECAY_DATE":null,"RA_OF_ASC_NODE":"145.7217","PERIAPSIS":"546.357","BSTAR":"0.00013713000000","APOAPSIS":"548.051","TIME_SYSTEM":"UTC","TLE_LINE1":"1 48281U 21036F   23026.59655718  .00001762  00000-0  13713-3 0  9998"},{"PERIOD":"95.592","ARG_OF_PERICENTER":"100.1415","MEAN_ANOMALY":"259.9726","INCLINATION":"53.0541","FILE":"3762099","TLE_LINE2":"2 48282  53.0541 150.6154 0001351 100.1415 259.9726 15.06401295 97366","ECCENTRICITY":"0.00013510","REF_FRAME":"TEME","ELEMENT_SET_NO":"999","SITE":"AFETR","CENTER_NAME":"EARTH","OBJECT_ID":"2021-036G","MEAN_MOTION_DDOT":"0.0000000000000","EPOCH":"2023-01-26T14:52:52.467744","NORAD_CAT_ID":"48282","LAUNCH_DATE":"2021-04-29","MEAN_MOTION":"15.06401295","REV_AT_EPOCH":"9736","SEMIMAJOR_AXIS":"6925.345","COUNTRY_CODE":"US","CLASSIFICATION_TYPE":"U","OBJECT_NAME":"STARLINK-2558","OBJECT_TYPE":"PAYLOAD","APOAPSIS":"548.145","TLE_LINE1":"1 48282U 21036G   23026.62005171  .00001068  00000-0  90579-4 0  9990","TIME_SYSTEM":"UTC","DECAY_DATE":null,"PERIAPSIS":"546.274","RA_OF_ASC_NODE":"150.6154","BSTAR":"0.00009057900000","EPHEMERIS_TYPE":"0","RCS_SIZE":"LARGE","GP_ID":"223763544","MEAN_ELEMENT_THEORY":"SGP4","MEAN_MOTION_DOT":"0.00001068"}];
